{
  "norad_id": 62012,
  "name": "STARLINK-11363 [DTC]",
  "history": [
    {
      "epoch": "2026-03-28T21:40:24.790944",
      "apogee_km": 360.28821340274135,
      "perigee_km": 358.9271889731026,
      "latitude_deg": 51.022428631707704,
      "longitude_deg": 107.89421216002665,
      "semi_major_axis_km": 6737.744701187922,
      "eccentricity": 0.000101,
      "inclination_deg": 53.1574,
      "raan_deg": 306.4881,
      "arg_perigee_deg": 82.3578,
      "mean_anomaly_deg": 277.7555,
      "mean_motion_rev_day": 15.69751603
    }
  ]
}